[{"OBJECT_NAME":"STARLINK-32222","OBJECT_ID":"2024-144L","EPOCH":"2026-03-09T17:12:25.454592","MEAN_MOTION":15.30184598,"ECCENTRICITY":0.00018483,"INCLINATION":53.1603,"RA_OF_ASC_NODE":216.9816,"ARG_OF_PERICENTER":47.2647,"MEAN_ANOMALY":312.8509,"EPHEMERIS_TYPE":0,"CLASSIFICATION_TYPE":"U","NORAD_CAT_ID":60435,"ELEMENT_SET_NO":999,"REV_AT_EPOCH":8931,"BSTAR":9.756489e-6,"MEAN_MOTION_DOT":-7.1e-7,"MEAN_MOTION_DDOT":0},{"OBJECT_NAME":"KUIPER-00183","OBJECT_ID":"2025-301F","EPOCH":"2026-03-09T22:00:01.999584","MEAN_MOTION":15.28555387,"ECCENTRICITY":0.00143222,"INCLINATION":51.8667,"RA_OF_ASC_NODE":65.0366,"ARG_OF_PERICENTER":58.1585,"MEAN_ANOMALY":99.3056,"EPHEMERIS_TYPE":0,"CLASSIFICATION_TYPE":"U","NORAD_CAT_ID":67138,"ELEMENT_SET_NO":999,"REV_AT_EPOCH":583,"BSTAR":-0.054814766,"MEAN_MOTION_DOT":-0.01408357,"MEAN_MOTION_DDOT":0}]
